NORAD_CAT_ID,OBJECT_NAME,OBJECT_TYPE,EPOCH,MEAN_MOTION,ECCENTRICITY,INCLINATION,RA_OF_ASC_NODE,ARG_OF_PERICENTER,MEAN_ANOMALY,BSTAR,MEAN_MOTION_DOT,MEAN_MOTION_DDOT,TLE_LINE0,TLE_LINE1,TLE_LINE2,SEMIMAJOR_AXIS,PERIOD,APOGEE,PERIGEE,DECAYED
53180.0,STARLINK-4258,PAYLOAD,2023-08-17 12:25:19,15.08839909,0.0001294,53.2162,2.0716,110.1854,249.9278,0.00016406,2.324e-05,0.0,0 STARLINK-4258,1 53180U 22083BA  23229.51758673  .00002324  00000-0  16406-3 0  9993,2 53180  53.2162   2.0716 0001294 110.1854 249.9278 15.08839909 61370,6917.881,95.438,540.641,538.85,0.0
53180.0,STARLINK-4258,PAYLOAD,2023-08-18 15:26:52,15.08840874,0.0001057,53.2173,357.0182,104.501,255.61,9.0978e-05,1.16e-05,0.0,0 STARLINK-4258,1 53180U 22083BA  23230.64366648  .00001160  00000-0  90978-4 0  9990,2 53180  53.2173 357.0182 0001057 104.5010 255.6100 15.08840874 61540,6917.878,95.437,540.474,539.011,0.0
53180.0,STARLINK-4258,PAYLOAD,2023-08-19 08:56:07,15.08834957,0.000132,53.2173,353.7476,103.1219,256.9921,9.7639e-05,1.266e-05,0.0,0 STARLINK-4258,1 53180U 22083BA  23231.37231165  .00001266  00000-0  97639-4 0  9994,2 53180  53.2173 353.7476 0001320 103.1219 256.9921 15.08834957 61650,6917.896,95.438,540.674,538.848,0.0
53180.0,STARLINK-4258,PAYLOAD,2023-08-20 15:08:27,15.08841565,0.0001017,53.2173,348.0975,88.6411,271.4698,8.3688e-05,1.044e-05,0.0,0 STARLINK-4258,1 53180U 22083BA  23232.63087075  .00001044  00000-0  83688-4 0  9996,2 53180  53.2173 348.0975 0001017  88.6411 271.4698 15.08841565 61842,6917.876,95.437,540.444,539.037,0.0
53180.0,STARLINK-4258,PAYLOAD,2023-08-21 11:48:28,15.08834987,0.0001183,53.2181,344.2321,88.0319,272.0809,0.00019237,2.775e-05,0.0,0 STARLINK-4258,1 53180U 22083BA  23233.49199707  .00002775  00000-0  19237-3 0  9997,2 53180  53.2181 344.2321 0001183  88.0319 272.0809 15.08834987 61974,6917.896,95.438,540.579,538.942,0.0
53180.0,STARLINK-4258,PAYLOAD,2023-08-22 11:39:15,15.08835085,0.0001742,53.2172,339.7713,53.9173,306.1981,2.3415e-05,8.5e-07,0.0,0 STARLINK-4258,1 53180U 22083BA  23234.48560051  .00000085  00000-0  23415-4 0  9997,2 53180  53.2172 339.7713 0001742  53.9173 306.1981 15.08835085 62126,6917.895,95.438,540.966,538.555,0.0
53180.0,STARLINK-4258,PAYLOAD,2023-08-23 11:30:02,15.08847021,0.0001175,53.2182,335.3122,79.3834,280.729,0.00013582,1.875e-05,0.0,0 STARLINK-4258,1 53180U 22083BA  23235.47919239  .00001875  00000-0  13582-3 0  9994,2 53180  53.2182 335.3122 0001175  79.3834 280.7290 15.08847021 62278,6917.859,95.437,540.537,538.911,0.0
53180.0,STARLINK-4258,PAYLOAD,2023-08-24 14:31:35,15.08842089,0.0001501,53.2172,330.2538,113.1013,247.0137,9.5579e-05,1.234e-05,0.0,0 STARLINK-4258,1 53180U 22083BA  23236.60527462  .00001234  00000-0  95579-4 0  9999,2 53180  53.2172 330.2538 0001501 113.1013 247.0137 15.08842089 61804,6917.874,95.437,540.777,538.701,0.0
53180.0,STARLINK-4258,PAYLOAD,2023-08-25 12:47:01,15.08764372,0.000192,53.2186,326.0912,101.4893,258.6314,0.0013246,0.00020812,0.0,0 STARLINK-4258,1 53180U 22083BA  23237.53266039  .00020812  00000-0  13246-2 0  9994,2 53180  53.2186 326.0912 0001920 101.4893 258.6314 15.08764372 61947,6918.112,95.442,541.305,538.648,0.0
53180.0,STARLINK-4258,PAYLOAD,2023-08-25 17:33:07,15.08864763,0.0001546,53.2184,325.1971,113.1476,246.9679,-0.00012717,-2.313e-05,0.0,0 STARLINK-4258,1 53180U 22083BA  23237.73134062 -.00002313  00000-0 -12717-3 0  9997,2 53180  53.2184 325.1971 0001546 113.1476 246.9679 15.08864763 62615,6917.805,95.436,540.739,538.6,0.0
53180.0,STARLINK-4258,PAYLOAD,2023-08-26 11:02:23,15.08844346,0.0001594,53.2183,321.9278,112.732,247.3841,0.00013885,1.923e-05,0.0,0 STARLINK-4258,1 53180U 22083BA  23238.45999274  .00001923  00000-0  13885-3 0  9992,2 53180  53.2183 321.9278 0001594 112.7320 247.3841 15.08844346 62727,6917.867,95.437,540.835,538.629,0.0
53180.0,STARLINK-4258,PAYLOAD,2023-08-26 15:48:32,15.08846798,0.000165,53.2184,321.0364,114.4013,245.7151,0.00012737,1.74e-05,0.0,0 STARLINK-4258,1 53180U 22083BA  23238.65871100  .00001740  00000-0  12737-3 0  9993,2 53180  53.2184 321.0364 0001650 114.4013 245.7151 15.08846798 62118,6917.86,95.437,540.866,538.583,0.0
53180.0,STARLINK-4258,PAYLOAD,2023-08-27 09:17:48,15.08838151,0.0001361,53.2177,317.7656,95.7538,264.3609,4.035e-06,-2.24e-06,0.0,0 STARLINK-4258,1 53180U 22083BA  23239.38736136 -.00000224  00000-0  40350-5 0  9994,2 53180  53.2177 317.7656 0001361  95.7538 264.3609 15.08838151 62869,6917.886,95.438,540.693,538.81,0.0
53180.0,STARLINK-4258,PAYLOAD,2023-08-27 10:53:11,15.08838924,0.0001297,53.2175,317.4686,95.2567,264.8573,-3.1412e-06,-3.38e-06,0.0,0 STARLINK-4258,1 53180U 22083BA  23239.45360093 -.00000338  00000-0 -31412-5 0  9993,2 53180  53.2175 317.4686 0001297  95.2567 264.8573 15.08838924 62236,6917.884,95.438,540.646,538.851,0.0
53180.0,STARLINK-4258,PAYLOAD,2023-08-28 13:54:44,15.08846172,0.0001409,53.2172,312.414,95.4687,264.6466,0.00015344,2.155e-05,0.0,0 STARLINK-4258,1 53180U 22083BA  23240.57967685  .00002155  00000-0  15344-3 0  9999,2 53180  53.2172 312.4140 0001409  95.4687 264.6466 15.08846172 63046,6917.862,95.437,540.701,538.752,0.0
53180.0,STARLINK-4258,PAYLOAD,2023-08-29 08:59:22,15.08839885,0.0001375,53.2163,308.8461,88.093,272.022,0.00015063,2.11e-05,0.0,0 STARLINK-4258,1 53180U 22083BA  23241.37456140  .00002110  00000-0  15063-3 0  9996,2 53180  53.2163 308.8461 0001375  88.0930 272.0220 15.08839885 63169,6917.881,95.438,540.697,538.795,0.0
53180.0,STARLINK-4258,PAYLOAD,2023-08-29 13:45:31,15.08845053,0.000138,53.2163,307.9541,87.52,272.595,0.00021285,3.102e-05,0.0,0 STARLINK-4258,1 53180U 22083BA  23241.57327912  .00003102  00000-0  21285-3 0  9997,2 53180  53.2163 307.9541 0001380  87.5200 272.5950 15.08845053 62559,6917.865,95.437,540.685,538.775,0.0
53180.0,STARLINK-4258,PAYLOAD,2023-08-30 04:03:59,15.08837399,0.0001441,53.2163,305.2786,84.475,275.6406,1.2417e-05,-9e-07,0.0,0 STARLINK-4258,1 53180U 22083BA  23242.16944415 -.00000090  00000-0  12417-4 0  9998,2 53180  53.2163 305.2786 0001441  84.4750 275.6406 15.08837399 63280,6917.888,95.438,540.75,538.756,0.0
53180.0,STARLINK-4258,PAYLOAD,2023-08-30 16:47:04,15.08843065,0.0001308,53.2164,302.8981,88.4132,271.701,9.225e-05,1.181e-05,0.0,0 STARLINK-4258,1 53180U 22083BA  23242.69936243  .00001181  00000-0  92250-4 0  9990,2 53180  53.2164 302.8981 0001308  88.4132 271.7010 15.08843065 62724,6917.871,95.437,540.641,538.831,0.0
53180.0,STARLINK-4258,PAYLOAD,2023-08-31 15:02:28,15.0884819,0.0001358,53.2157,298.7351,83.8883,276.2263,0.00017105,2.436e-05,0.0,0 STARLINK-4258,1 53180U 22083BA  23243.62671977  .00002436  00000-0  17105-3 0  9993,2 53180  53.2157 298.7351 0001358  83.8883 276.2263 15.08848190 63508,6917.855,95.437,540.66,538.781,0.0
53180.0,STARLINK-4258,PAYLOAD,2023-09-01 10:07:06,15.08841386,0.0001321,53.2144,295.1685,80.1853,279.9288,0.00014698,2.052e-05,0.0,0 STARLINK-4258,1 53180U 22083BA  23244.42160319  .00002052  00000-0  14698-3 0  9993,2 53180  53.2144 295.1685 0001321  80.1853 279.9288 15.08841386 63622,6917.876,95.437,540.655,538.827,0.0
53180.0,STARLINK-4258,PAYLOAD,2023-09-01 14:53:15,15.08844134,0.0001597,53.2143,294.2745,85.6813,274.4362,0.00012058,1.632e-05,0.0,0 STARLINK-4258,1 53180U 22083BA  23244.62032167  .00001632  00000-0  12058-3 0  9995,2 53180  53.2143 294.2745 0001597  85.6813 274.4362 15.08844134 63019,6917.868,95.437,540.838,538.628,0.0
53180.0,STARLINK-4258,PAYLOAD,2023-09-02 09:57:53,15.08843181,0.0001773,53.2136,290.7053,92.0111,268.1084,0.0001053,1.388e-05,0.0,0 STARLINK-4258,1 53180U 22083BA  23245.41519968  .00001388  00000-0  10530-3 0  9993,2 53180  53.2136 290.7053 0001773  92.0111 268.1084 15.08843181 63138,6917.871,95.437,540.962,538.509,0.0
53180.0,STARLINK-4258,PAYLOAD,2023-09-02 14:44:02,15.08842427,0.0001739,53.2142,289.8137,91.7036,268.4155,9.5941e-05,1.239e-05,0.0,0 STARLINK-4258,1 53180U 22083BA  23245.61392000  .00001239  00000-0  95941-4 0  9996,2 53180  53.2142 289.8137 0001739  91.7036 268.4155 15.08842427 63809,6917.873,95.437,540.941,538.535,0.0
53180.0,STARLINK-4258,PAYLOAD,2023-09-02 19:30:12,15.08839919,0.0001657,53.2139,288.9212,92.7768,267.3414,7.6613e-05,9.31e-06,0.0,0 STARLINK-4258,1 53180U 22083BA  23245.81264215  .00000931  00000-0  76613-4 0  9997,2 53180  53.2139 288.9212 0001657  92.7768 267.3414 15.08839919 63191,6917.881,95.438,540.892,538.599,0.0
53180.0,STARLINK-4258,PAYLOAD,2023-09-03 09:48:40,15.08844233,0.0001579,53.214,286.2449,89.8888,270.2285,8.4989e-05,1.065e-05,0.0,0 STARLINK-4258,1 53180U 22083BA  23246.40879887  .00001065  00000-0  84989-4 0  9994,2 53180  53.2140 286.2449 0001579  89.8888 270.2285 15.08844233 63283,6917.867,95.437,540.825,538.64,0.0
53180.0,STARLINK-4258,PAYLOAD,2023-09-04 01:42:32,15.08829576,0.0001812,53.2175,283.2691,90.7759,269.3441,8.5379e-06,-1.52e-06,0.0,0 STARLINK-4258,1 53180U 22083BA  23247.07121199 -.00000152  00000-0  85379-5 0  9996,2 53180  53.2175 283.2691 0001812  90.7759 269.3441 15.08829576 64024,6917.912,95.438,541.031,538.524,0.0
53180.0,STARLINK-4258,PAYLOAD,2023-09-04 11:14:51,15.08827167,0.0001409,53.2159,281.4886,91.6416,268.4738,-3.1765e-05,-7.93e-06,0.0,0 STARLINK-4258,1 53180U 22083BA  23247.46865641 -.00000793  00000-0 -31765-4 0  9997,2 53180  53.2159 281.4886 0001409  91.6416 268.4738 15.08827167 63442,6917.92,95.438,540.759,538.81,0.0
53180.0,STARLINK-4258,PAYLOAD,2023-09-04 19:11:47,15.08826674,0.0001795,53.2169,280.0021,92.6342,267.4856,6.6239e-05,7.66e-06,0.0,0 STARLINK-4258,1 53180U 22083BA  23247.79985794  .00000766  00000-0  66239-4 0  9997,2 53180  53.2169 280.0021 0001795  92.6342 267.4856 15.08826674 63493,6917.921,95.438,541.028,538.544,0.0
53180.0,STARLINK-4258,PAYLOAD,2023-09-06 01:24:06,15.08837361,0.0001394,53.2166,274.3518,86.718,273.3972,0.0002023,2.933e-05,0.0,0 STARLINK-4258,1 53180U 22083BA  23249.05841208  .00002933  00000-0  20230-3 0  9997,2 53180  53.2166 274.3518 0001394  86.7180 273.3972 15.08837361 64329,6917.888,95.438,540.718,538.789,0.0
